[
    {
        "Altitude(m)": 604234.6215712387,
        "Argument of Periapsis(deg)": 0.0,
        "Eccentricity": 0.0,
        "Inclination(deg)": 60.0,
        "Latitude(deg)": 14.117306143563145,
        "Longitude(deg)": 136.72734653701275,
        "Mean Anomaly(deg)": 163.6364,
        "RAAN(deg)": 65.0,
        "Satellite Name": "Test1 296",
        "Satellite Number": 296,
        "Semi-Major Axis(m)": 6980739.136638005,
        "Time(s)": 0
    },
    {
        "Altitude(m)": 604223.4496431554,
        "Argument of Periapsis(deg)": 0.00010418945913296404,
        "Eccentricity": 0.0,
        "Inclination(deg)": 60.0,
        "Latitude(deg)": 13.582442128257112,
        "Longitude(deg)": 137.01425504090426,
        "Mean Anomaly(deg)": 164.25650614546183,
        "RAAN(deg)": 64.99957995086025,
        "Satellite Name": "Test1 296",
        "Satellite Number": 296,
        "Semi-Major Axis(m)": 6980739.136638005,
        "Time(s)": 10
    }
]